SL-3 R/B                
1 13403U 82079B   26032.96146786  .00005057  00000+0  20438-3 0  9993
2 13403  81.1436 235.2522 0024238 288.1417  71.7177 15.24282622372250
SL-14 R/B               
1 13553U 82092B   26032.91401064  .00000594  00000+0  63869-4 0  9999
2 13553  82.5695 174.8510 0021674  62.0779  55.8227 14.86623400323619
SL-3 R/B                
1 13819U 83010B   26032.50828993  .00013012  00000+0  27300-3 0  9992
2 13819  81.1012  46.5664 0017364 167.5092 192.6586 15.45080931352350
SL-3 R/B                
1 14208U 83075B   26032.96705046  .00011297  00000+0  30724-3 0  9996
2 14208  97.6119  36.2243 0022130   3.2992 356.8393 15.37467147324666
COSMOS 1536             
1 14699U 84013A   26032.86025757  .00006280  00000+0  26239-3 0  9998
2 14699  82.5477 143.4428 0015390  52.6270 307.6366 15.23325957267165
SL-14 R/B               
1 14820U 84027B   26032.93653834  .00000471  00000+0  51015-4 0  9997
2 14820  82.5411 278.5511 0019538  91.6842 268.6613 14.85939915242322
SL-8 R/B                
1 15483U 85006B   26032.96532516  .00000261  00000+0  95364-4 0  9999
2 15483  74.0476 326.8822 0019663 251.3058 179.7050 14.37763582148896
SL-12 R/B(2)            
1 15772U 85042D   26032.82764101  .00000139  00000+0  83958-4 0  9992
2 15772  71.1082 163.4923 0035356 185.1739 286.7333 14.21971184109298
SL-14 R/B               
1 15945U 85069B   26032.93214481  .00000512  00000+0  55183-4 0  9990
2 15945  82.5239  58.5655 0017621 314.4141  45.5633 14.86389583167526
SL-16 R/B               
1 16182U 85097B   26032.99505072  .00000244  00000+0  14649-3 0  9993
2 16182  71.0011 215.6972 0009305 301.6868 226.3988 14.16594458 82174
SL-14 R/B               
1 16496U 86006B   26032.91858127  .00000832  00000+0  85614-4 0  9990
2 16496  82.5278 293.4039 0077522  32.2843 328.3083 14.86761793143899
COSMOS 1743             
1 16719U 86034A   26032.65650139  .00031968  00000+0  45947-3 0  9991
2 16719  82.5345 111.5677 0005352  71.5913 288.5923 15.55909886174647
