CCSDS_OMM_VERS = 2.0
CREATION_DATE  = 
ORIGINATOR     = 

OBJECT_NAME    = SL-3 R/B
OBJECT_ID      = 1982-079B
CENTER_NAME    = EARTH
REF_FRAME      = TEME
TIME_SYSTEM    = UTC
MEAN_ELEMENT_THEORY = SGP/SGP4

EPOCH          = 2026-02-01T23:04:30.823104
MEAN_MOTION    = 15.24282622
ECCENTRICITY   = .00242387
INCLINATION    = 81.1436
RA_OF_ASC_NODE = 235.2522
ARG_OF_PERICENTER = 288.1417
MEAN_ANOMALY   = 71.7177

EPHEMERIS_TYPE = 0
CLASSIFICATION_TYPE = U
NORAD_CAT_ID   = 13403
ELEMENT_SET_NO = 999
REV_AT_EPOCH   = 37225
BSTAR          = .20437684E-3
MEAN_MOTION_DOT = .5057E-4
MEAN_MOTION_DDOT = 0

CCSDS_OMM_VERS = 2.0
CREATION_DATE  = 
ORIGINATOR     = 

OBJECT_NAME    = SL-14 R/B
OBJECT_ID      = 1982-092B
CENTER_NAME    = EARTH
REF_FRAME      = TEME
TIME_SYSTEM    = UTC
MEAN_ELEMENT_THEORY = SGP/SGP4

EPOCH          = 2026-02-01T21:56:10.519296
MEAN_MOTION    = 14.86623400
ECCENTRICITY   = .00216741
INCLINATION    = 82.5695
RA_OF_ASC_NODE = 174.8510
ARG_OF_PERICENTER = 62.0779
MEAN_ANOMALY   = 55.8227

EPHEMERIS_TYPE = 0
CLASSIFICATION_TYPE = U
NORAD_CAT_ID   = 13553
ELEMENT_SET_NO = 999
REV_AT_EPOCH   = 32361
BSTAR          = .63869158E-4
MEAN_MOTION_DOT = .594E-5
MEAN_MOTION_DDOT = 0

CCSDS_OMM_VERS = 2.0
CREATION_DATE  = 
ORIGINATOR     = 

OBJECT_NAME    = SL-3 R/B
OBJECT_ID      = 1983-010B
CENTER_NAME    = EARTH
REF_FRAME      = TEME
TIME_SYSTEM    = UTC
MEAN_ELEMENT_THEORY = SGP/SGP4

EPOCH          = 2026-02-01T12:11:56.249952
MEAN_MOTION    = 15.45080931
ECCENTRICITY   = .0017364
INCLINATION    = 81.1012
RA_OF_ASC_NODE = 46.5664
ARG_OF_PERICENTER = 167.5092
MEAN_ANOMALY   = 192.6586

EPHEMERIS_TYPE = 0
CLASSIFICATION_TYPE = U
NORAD_CAT_ID   = 13819
ELEMENT_SET_NO = 999
REV_AT_EPOCH   = 35235
BSTAR          = .27299666E-3
MEAN_MOTION_DOT = .13012E-3
MEAN_MOTION_DDOT = 0

CCSDS_OMM_VERS = 2.0
CREATION_DATE  = 
ORIGINATOR     = 

OBJECT_NAME    = SL-3 R/B
OBJECT_ID      = 1983-075B
CENTER_NAME    = EARTH
REF_FRAME      = TEME
TIME_SYSTEM    = UTC
MEAN_ELEMENT_THEORY = SGP/SGP4

EPOCH          = 2026-02-01T23:12:33.159744
MEAN_MOTION    = 15.37467147
ECCENTRICITY   = .00221304
INCLINATION    = 97.6119
RA_OF_ASC_NODE = 36.2243
ARG_OF_PERICENTER = 3.2992
MEAN_ANOMALY   = 356.8393

EPHEMERIS_TYPE = 0
CLASSIFICATION_TYPE = U
NORAD_CAT_ID   = 14208
ELEMENT_SET_NO = 999
REV_AT_EPOCH   = 32466
BSTAR          = .30724232E-3
MEAN_MOTION_DOT = .11297E-3
MEAN_MOTION_DDOT = 0

CCSDS_OMM_VERS = 2.0
CREATION_DATE  = 
ORIGINATOR     = 

OBJECT_NAME    = COSMOS 1536
OBJECT_ID      = 1984-013A
CENTER_NAME    = EARTH
REF_FRAME      = TEME
TIME_SYSTEM    = UTC
MEAN_ELEMENT_THEORY = SGP/SGP4

EPOCH          = 2026-02-01T20:38:46.254048
MEAN_MOTION    = 15.23325957
ECCENTRICITY   = .00153909
INCLINATION    = 82.5477
RA_OF_ASC_NODE = 143.4428
ARG_OF_PERICENTER = 52.6270
MEAN_ANOMALY   = 307.6366

EPHEMERIS_TYPE = 0
CLASSIFICATION_TYPE = U
NORAD_CAT_ID   = 14699
ELEMENT_SET_NO = 999
REV_AT_EPOCH   = 26716
BSTAR          = .26239E-3
MEAN_MOTION_DOT = .628E-4
MEAN_MOTION_DDOT = 0

CCSDS_OMM_VERS = 2.0
CREATION_DATE  = 
ORIGINATOR     = 

OBJECT_NAME    = SL-14 R/B
OBJECT_ID      = 1984-027B
CENTER_NAME    = EARTH
REF_FRAME      = TEME
TIME_SYSTEM    = UTC
MEAN_ELEMENT_THEORY = SGP/SGP4

EPOCH          = 2026-02-01T22:28:36.912576
MEAN_MOTION    = 14.85939915
ECCENTRICITY   = .00195386
INCLINATION    = 82.5411
RA_OF_ASC_NODE = 278.5511
ARG_OF_PERICENTER = 91.6842
MEAN_ANOMALY   = 268.6613

EPHEMERIS_TYPE = 0
CLASSIFICATION_TYPE = U
NORAD_CAT_ID   = 14820
ELEMENT_SET_NO = 999
REV_AT_EPOCH   = 24232
BSTAR          = .51015358E-4
MEAN_MOTION_DOT = .471E-5
MEAN_MOTION_DDOT = 0

CCSDS_OMM_VERS = 2.0
CREATION_DATE  = 
ORIGINATOR     = 

OBJECT_NAME    = SL-8 R/B
OBJECT_ID      = 1985-006B
CENTER_NAME    = EARTH
REF_FRAME      = TEME
TIME_SYSTEM    = UTC
MEAN_ELEMENT_THEORY = SGP/SGP4

EPOCH          = 2026-02-01T23:10:04.093824
MEAN_MOTION    = 14.37763582
ECCENTRICITY   = .00196633
INCLINATION    = 74.0476
RA_OF_ASC_NODE = 326.8822
ARG_OF_PERICENTER = 251.3058
MEAN_ANOMALY   = 179.7050

EPHEMERIS_TYPE = 0
CLASSIFICATION_TYPE = U
NORAD_CAT_ID   = 15483
ELEMENT_SET_NO = 999
REV_AT_EPOCH   = 14889
BSTAR          = .95364447E-4
MEAN_MOTION_DOT = .261E-5
MEAN_MOTION_DDOT = 0

CCSDS_OMM_VERS = 2.0
CREATION_DATE  = 
ORIGINATOR     = 

OBJECT_NAME    = SL-12 R/B(2)
OBJECT_ID      = 1985-042D
CENTER_NAME    = EARTH
REF_FRAME      = TEME
TIME_SYSTEM    = UTC
MEAN_ELEMENT_THEORY = SGP/SGP4

EPOCH          = 2026-02-01T19:51:48.183264
MEAN_MOTION    = 14.21971184
ECCENTRICITY   = .00353561
INCLINATION    = 71.1082
RA_OF_ASC_NODE = 163.4923
ARG_OF_PERICENTER = 185.1739
MEAN_ANOMALY   = 286.7333

EPHEMERIS_TYPE = 0
CLASSIFICATION_TYPE = U
NORAD_CAT_ID   = 15772
ELEMENT_SET_NO = 999
REV_AT_EPOCH   = 10929
BSTAR          = .83957661E-4
MEAN_MOTION_DOT = .139E-5
MEAN_MOTION_DDOT = 0

CCSDS_OMM_VERS = 2.0
CREATION_DATE  = 
ORIGINATOR     = 

OBJECT_NAME    = SL-14 R/B
OBJECT_ID      = 1985-069B
CENTER_NAME    = EARTH
REF_FRAME      = TEME
TIME_SYSTEM    = UTC
MEAN_ELEMENT_THEORY = SGP/SGP4

EPOCH          = 2026-02-01T22:22:17.311584
MEAN_MOTION    = 14.86389583
ECCENTRICITY   = .00176212
INCLINATION    = 82.5239
RA_OF_ASC_NODE = 58.5655
ARG_OF_PERICENTER = 314.4141
MEAN_ANOMALY   = 45.5633

EPHEMERIS_TYPE = 0
CLASSIFICATION_TYPE = U
NORAD_CAT_ID   = 15945
ELEMENT_SET_NO = 999
REV_AT_EPOCH   = 16752
BSTAR          = .55183474E-4
MEAN_MOTION_DOT = .512E-5
MEAN_MOTION_DDOT = 0

CCSDS_OMM_VERS = 2.0
CREATION_DATE  = 
ORIGINATOR     = 

OBJECT_NAME    = SL-16 R/B
OBJECT_ID      = 1985-097B
CENTER_NAME    = EARTH
REF_FRAME      = TEME
TIME_SYSTEM    = UTC
MEAN_ELEMENT_THEORY = SGP/SGP4

EPOCH          = 2026-02-01T23:52:52.382208
MEAN_MOTION    = 14.16594458
ECCENTRICITY   = .00093058
INCLINATION    = 71.0011
RA_OF_ASC_NODE = 215.6972
ARG_OF_PERICENTER = 301.6868
MEAN_ANOMALY   = 226.3988

EPHEMERIS_TYPE = 0
CLASSIFICATION_TYPE = U
NORAD_CAT_ID   = 16182
ELEMENT_SET_NO = 999
REV_AT_EPOCH   = 8217
BSTAR          = .14649386E-3
MEAN_MOTION_DOT = .244E-5
MEAN_MOTION_DDOT = 0

CCSDS_OMM_VERS = 2.0
CREATION_DATE  = 
ORIGINATOR     = 

OBJECT_NAME    = SL-14 R/B
OBJECT_ID      = 1986-006B
CENTER_NAME    = EARTH
REF_FRAME      = TEME
TIME_SYSTEM    = UTC
MEAN_ELEMENT_THEORY = SGP/SGP4

EPOCH          = 2026-02-01T22:02:45.421728
MEAN_MOTION    = 14.86761793
ECCENTRICITY   = .00775228
INCLINATION    = 82.5278
RA_OF_ASC_NODE = 293.4039
ARG_OF_PERICENTER = 32.2843
MEAN_ANOMALY   = 328.3083

EPHEMERIS_TYPE = 0
CLASSIFICATION_TYPE = U
NORAD_CAT_ID   = 16496
ELEMENT_SET_NO = 999
REV_AT_EPOCH   = 14389
BSTAR          = .8561449E-4
MEAN_MOTION_DOT = .832E-5
MEAN_MOTION_DDOT = 0

CCSDS_OMM_VERS = 2.0
CREATION_DATE  = 
ORIGINATOR     = 

OBJECT_NAME    = COSMOS 1743
OBJECT_ID      = 1986-034A
CENTER_NAME    = EARTH
REF_FRAME      = TEME
TIME_SYSTEM    = UTC
MEAN_ELEMENT_THEORY = SGP/SGP4

EPOCH          = 2026-02-01T15:45:21.720096
MEAN_MOTION    = 15.55909886
ECCENTRICITY   = .00053528
INCLINATION    = 82.5345
RA_OF_ASC_NODE = 111.5677
ARG_OF_PERICENTER = 71.5913
MEAN_ANOMALY   = 288.5923

EPHEMERIS_TYPE = 0
CLASSIFICATION_TYPE = U
NORAD_CAT_ID   = 16719
ELEMENT_SET_NO = 999
REV_AT_EPOCH   = 17464
BSTAR          = .45946942E-3
MEAN_MOTION_DOT = .31968E-3
MEAN_MOTION_DDOT = 0

